{
    "links": {
        "self": "http://www.neowsapp.com/rest/v1/neo/3680268?api_key=iIulBulltgU6a56xZRHN4H3l9WmuAYTsLGpBGhQ2"
    },
    "id": "3680268",
    "neo_reference_id": "3680268",
    "name": "(2014 OV391)",
    "designation": "2014 OV391",
    "nasa_jpl_url": "http://ssd.jpl.nasa.gov/sbdb.cgi?sstr=3680268",
    "absolute_magnitude_h": 22.4,
    "estimated_diameter": {
        "kilometers": {
            "estimated_diameter_min": 0.0880146521,
            "estimated_diameter_max": 0.1968067451
        },
        "meters": {
            "estimated_diameter_min": 88.0146520901,
            "estimated_diameter_max": 196.8067450894
        },
        "miles": {
            "estimated_diameter_min": 0.0546897524,
            "estimated_diameter_max": 0.122290004
        },
        "feet": {
            "estimated_diameter_min": 288.7619911632,
            "estimated_diameter_max": 645.6914415591
        }
    },
    "is_potentially_hazardous_asteroid": false,
    "close_approach_data": [
        {
            "close_approach_date": "2012-07-23",
            "close_approach_date_full": "2012-Jul-23 15:35",
            "epoch_date_close_approach": 1343057700000,
            "relative_velocity": {
                "kilometers_per_second": "6.6131271591",
                "kilometers_per_hour": "23807.257772645",
                "miles_per_hour": "14792.9041421193"
            },
            "miss_distance": {
                "astronomical": "0.3335136675",
                "lunar": "129.7368166575",
                "kilometers": "49892934.273888225",
                "miles": "31002031.774478505"
            },
            "orbiting_body": "Earth"
        },
        {
            "close_approach_date": "2014-08-11",
            "close_approach_date_full": "2014-Aug-11 06:33",
            "epoch_date_close_approach": 1407738780000,
            "relative_velocity": {
                "kilometers_per_second": "6.8043239611",
                "kilometers_per_hour": "24495.5662597933",
                "miles_per_hour": "15220.592268481"
            },
            "miss_distance": {
                "astronomical": "0.2866251614",
                "lunar": "111.4971877846",
                "kilometers": "42878513.633846218",
                "miles": "26643472.8978170884"
            },
            "orbiting_body": "Earth"
        },
        {
            "close_approach_date": "2016-08-29",
            "close_approach_date_full": "2016-Aug-29 06:48",
            "epoch_date_close_approach": 1472453280000,
            "relative_velocity": {
                "kilometers_per_second": "6.645160088",
                "kilometers_per_hour": "23922.5763168591",
                "miles_per_hour": "14864.5586008839"
            },
            "miss_distance": {
                "astronomical": "0.3531000342",
                "lunar": "137.3559133038",
                "kilometers": "52823013.013247154",
                "miles": "32822698.2776885652"
            },
            "orbiting_body": "Earth"
        }
    ],
    "orbital_data": {
        "orbit_id": "5",
        "orbit_determination_date": "2017-04-06 08:39:23",
        "first_observation_date": "2014-07-28",
        "last_observation_date": "2014-08-21",
        "data_arc_in_days": 24,
        "observations_used": 20,
        "orbit_uncertainty": "7",
        "minimum_orbit_intersection": ".286551",
        "jupiter_tisserand_invariant": "4.377",
        "epoch_osculation": "2459000.5",
        "eccentricity": ".169548261471294",
        "semi_major_axis": "1.564895259748659",
        "inclination": "13.37551511239345",
        "ascending_node_longitude": "319.4345303552915",
        "orbital_period": "715.0334177058843",
        "perihelion_distance": "1.299569989073605",
        "perihelion_argument": "356.5218108914154",
        "aphelion_distance": "1.830220530423713",
        "perihelion_time": "2459021.631915795931",
        "mean_anomaly": "349.3606515469682",
        "mean_motion": ".5034729721514629",
        "equinox": "J2000",
        "orbit_class": {
            "orbit_class_type": "AMO",
            "orbit_class_description": "Near-Earth asteroid orbits similar to that of 1221 Amor",
            "orbit_class_range": "1.017 AU < q (perihelion) < 1.3 AU"
        }
    },
    "is_sentry_object": false
}